NORAD_CAT_ID,OBJECT_NAME,OBJECT_TYPE,EPOCH,MEAN_MOTION,ECCENTRICITY,INCLINATION,RA_OF_ASC_NODE,ARG_OF_PERICENTER,MEAN_ANOMALY,BSTAR,MEAN_MOTION_DOT,MEAN_MOTION_DDOT,TLE_LINE0,TLE_LINE1,TLE_LINE2,SEMIMAJOR_AXIS,PERIOD,APOGEE,PERIGEE,DECAYED
52862.0,STARLINK-4010,PAYLOAD,2022-12-18 04:33:54,15.08876897,0.0001913,53.2185,270.1104,46.2499,313.8652,-0.00058474,-9.592e-05,0.0,0 STARLINK-4010,1 52862U 22062AJ  22352.19021940 -.00009592  00000-0 -58474-3 0  9993,2 52862  53.2185 270.1104 0001913  46.2499 313.8652 15.08876897 28650,6917.768,95.435,540.956,538.309,0.0
52862.0,STARLINK-4010,PAYLOAD,2022-12-18 18:52:24,15.08829735,0.0001922,53.2179,267.434,49.0391,311.0767,2.6436e-05,1.32e-06,0.0,0 STARLINK-4010,1 52862U 22062AJ  22352.78639110  .00000132  00000-0  26436-4 0  9995,2 52862  53.2179 267.4340 0001922  49.0391 311.0767 15.08829735 28258,6917.9119999999975,95.438,541.106,538.447,0.0
52862.0,STARLINK-4010,PAYLOAD,2022-12-19 01:13:57,15.08825242,0.0001925,53.2181,266.2463,43.5422,316.5722,4.4323e-06,-2.18e-06,0.0,0 STARLINK-4010,1 52862U 22062AJ  22353.05135645 -.00000218  00000-0  44323-5 0  9992,2 52862  53.2181 266.2463 0001925  43.5422 316.5722 15.08825242 28789,6917.925,95.438,541.122,538.4590000000002,0.0
52862.0,STARLINK-4010,PAYLOAD,2022-12-20 01:04:42,15.08851727,0.0001928,53.2177,261.7864,40.6115,319.5021,0.00025369,3.753e-05,0.0,0 STARLINK-4010,1 52862U 22062AJ  22354.04493553  .00003753  00000-0  25369-3 0  9990,2 52862  53.2177 261.7864 0001928  40.6115 319.5021 15.08851727 28938,6917.845,95.437,541.043,538.376,0.0
52862.0,STARLINK-4010,PAYLOAD,2022-12-20 10:37:01,15.08854671,0.0002074,53.2176,260.001,44.8817,315.2343,0.00022081,3.229e-05,0.0,0 STARLINK-4010,1 52862U 22062AJ  22354.44237359  .00003229  00000-0  22081-3 0  9990,2 52862  53.2176 260.0010 0002074  44.8817 315.2343 15.08854671 28504,6917.8359999999975,95.437,541.135,538.266,0.0
52862.0,STARLINK-4010,PAYLOAD,2022-12-20 18:33:57,15.08845665,0.0001917,53.2178,258.5155,52.6779,307.4387,0.00016417,2.326e-05,0.0,0 STARLINK-4010,1 52862U 22062AJ  22354.77357875  .00002326  00000-0  16417-3 0  9995,2 52862  53.2178 258.5155 0001917  52.6779 307.4387 15.08845665 29041,6917.863,95.437,541.054,538.4019999999998,0.0
52862.0,STARLINK-4010,PAYLOAD,2022-12-21 02:30:54,15.08829541,0.0001832,53.2177,257.0279,44.8926,315.2214,1.4127e-06,-2.66e-06,0.0,0 STARLINK-4010,1 52862U 22062AJ  22355.10479349 -.00000266  00000-0  14127-5 0  9994,2 52862  53.2177 257.0279 0001832  44.8926 315.2214 15.08829541 29090,6917.9119999999975,95.438,541.045,538.51,0.0
52862.0,STARLINK-4010,PAYLOAD,2022-12-21 10:27:50,15.08818532,0.0002109,53.218,255.5402,43.6514,316.4645,-6.453e-05,-1.314e-05,0.0,0 STARLINK-4010,1 52862U 22062AJ  22355.43600552 -.00001314  00000-0 -64530-4 0  9990,2 52862  53.2180 255.5402 0002109  43.6514 316.4645 15.08818532 29148,6917.946,95.439,541.27,538.352,0.0
52862.0,STARLINK-4010,PAYLOAD,2022-12-22 02:21:40,15.08856095,0.0001903,53.2176,252.5672,44.4504,315.664,-3.1629e-05,-7.92e-06,0.0,0 STARLINK-4010,1 52862U 22062AJ  22356.09838184 -.00000792  00000-0 -31629-4 0  9999,2 52862  53.2176 252.5672 0001903  44.4504 315.6640 15.08856095 29241,6917.831,95.437,541.013,538.38,0.0
52862.0,STARLINK-4010,PAYLOAD,2022-12-22 10:18:36,15.08846495,0.0002046,53.2178,251.0803,43.5622,316.5532,-7.693899999999999e-05,-1.513e-05,0.0,0 STARLINK-4010,1 52862U 22062AJ  22356.42958776 -.00001513  00000-0 -76939-4 0  9991,2 52862  53.2178 251.0803 0002046  43.5622 316.5532 15.08846495 29291,6917.861,95.437,541.141,538.31,0.0
52862.0,STARLINK-4010,PAYLOAD,2022-12-22 21:26:17,15.08846552,0.0002241,53.2178,248.9975,45.1713,314.9461,0.00012506,1.703e-05,0.0,0 STARLINK-4010,1 52862U 22062AJ  22356.89326121  .00001703  00000-0  12506-3 0  9993,2 52862  53.2178 248.9975 0002241  45.1713 314.9461 15.08846552 28872,6917.86,95.437,541.276,538.175,0.0
52862.0,STARLINK-4010,PAYLOAD,2022-12-23 02:12:28,15.08833773,0.0002238,53.2173,248.1065,36.992,323.1226,5.580800000000001e-05,6e-06,0.0,0 STARLINK-4010,1 52862U 22062AJ  22357.09199104  .00000600  00000-0  55808-4 0  9993,2 52862  53.2173 248.1065 0002238  36.9920 323.1226 15.08833773 29393,6917.899,95.438,541.313,538.216,0.0
52862.0,STARLINK-4010,PAYLOAD,2022-12-23 10:09:23,15.08832025,0.0002063,53.2178,246.621,43.2798,316.8356,0.00014564,2.03e-05,0.0,0 STARLINK-4010,1 52862U 22062AJ  22357.42319103  .00002030  00000-0  14564-3 0  9995,2 52862  53.2178 246.6210 0002063  43.2798 316.8356 15.08832025 28956,6917.905,95.438,541.197,538.3430000000002,0.0
52862.0,STARLINK-4010,PAYLOAD,2022-12-23 19:41:42,15.08833391,0.0002118,53.2179,244.8365,45.2201,314.8963,6.7155e-05,7.81e-06,0.0,0 STARLINK-4010,1 52862U 22062AJ  22357.82063577  .00000781  00000-0  67155-4 0  9996,2 52862  53.2179 244.8365 0002118  45.2201 314.8963 15.08833391 29017,6917.901,95.438,541.231,538.3,0.0
52862.0,STARLINK-4010,PAYLOAD,2022-12-24 10:00:10,15.08847437,0.0002064,53.2177,242.1605,45.6765,314.4397,1.889e-05,1.2e-07,0.0,0 STARLINK-4010,1 52862U 22062AJ  22358.41678825  .00000012  00000-0  18890-4 0  9999,2 52862  53.2177 242.1605 0002064  45.6765 314.4397 15.08847437 29598,6917.858,95.437,541.151,538.295,0.0
52862.0,STARLINK-4010,PAYLOAD,2022-12-24 22:43:16,15.08840782,0.0002351,53.2177,239.782,49.9706,310.1492,-1.3722e-05,-5.07e-06,0.0,0 STARLINK-4010,1 52862U 22062AJ  22358.94671381 -.00000507  00000-0 -13722-4 0  9997,2 52862  53.2177 239.7820 0002351  49.9706 310.1492 15.08840782 29674,6917.878000000002,95.438,541.369,538.117,0.0
52862.0,STARLINK-4010,PAYLOAD,2022-12-25 01:54:01,15.08854042,0.0002343,53.2176,239.1872,51.9671,308.1532,-0.00014846,-2.651e-05,0.0,0 STARLINK-4010,1 52862U 22062AJ  22359.07918937 -.00002651  00000-0 -14846-3 0  9992,2 52862  53.2176 239.1872 0002343  51.9671 308.1532 15.08854042 29697,6917.837,95.437,541.323,538.082,0.0
52862.0,STARLINK-4010,PAYLOAD,2022-12-25 09:50:58,15.08834854,0.0002191,53.2175,237.7002,48.0502,312.0677,2.9084e-05,1.75e-06,0.0,0 STARLINK-4010,1 52862U 22062AJ  22359.41039578  .00000175  00000-0  29084-4 0  9993,2 52862  53.2175 237.7002 0002191  48.0502 312.0677 15.08834854 29745,6917.896,95.438,541.2769999999998,538.245,0.0
52862.0,STARLINK-4010,PAYLOAD,2022-12-25 17:47:54,15.0883342,0.000221,53.2173,236.2134,48.5556,311.5625,2.1346e-05,5.1e-07,0.0,0 STARLINK-4010,1 52862U 22062AJ  22359.74159759  .00000051  00000-0  21346-4 0  9999,2 52862  53.2173 236.2134 0002210  48.5556 311.5625 15.08833420 29306,6917.901,95.438,541.294,538.237,0.0
52862.0,STARLINK-4010,PAYLOAD,2022-12-26 01:44:49,15.0883283,0.0002236,53.2172,234.7268,49.5014,310.6172,2.8506e-05,1.65e-06,0.0,0 STARLINK-4010,1 52862U 22062AJ  22360.07279860  .00000165  00000-0  28506-4 0  9994,2 52862  53.2172 234.7268 0002236  49.5014 310.6172 15.08832830 29350,6917.901999999999,95.438,541.314,538.22,0.0
52862.0,STARLINK-4010,PAYLOAD,2022-12-26 17:38:40,15.08838291,0.0002188,53.217,231.7528,47.6877,312.4301,6.7099e-05,7.8e-06,0.0,0 STARLINK-4010,1 52862U 22062AJ  22360.73519503  .00000780  00000-0  67099-4 0  9991,2 52862  53.2170 231.7528 0002188  47.6877 312.4301 15.08838291 29942,6917.886,95.438,541.264,538.237,0.0
52862.0,STARLINK-4010,PAYLOAD,2022-12-27 01:35:37,15.08833432,0.0002192,53.217,230.2661,46.4134,313.704,4.6899e-06,-2.14e-06,0.0,0 STARLINK-4010,1 52862U 22062AJ  22361.06640109 -.00000214  00000-0  46899-5 0  9994,2 52862  53.2170 230.2661 0002192  46.4134 313.7040 15.08833432 29993,6917.9,95.438,541.2819999999998,538.249,0.0
52862.0,STARLINK-4010,PAYLOAD,2022-12-27 07:57:09,15.08839971,0.0002193,53.2174,229.0766,46.93600000000001,313.1815,3.5395e-05,2.75e-06,0.0,0 STARLINK-4010,1 52862U 22062AJ  22361.33135638  .00000275  00000-0  35395-4 0  9994,2 52862  53.2174 229.0766 0002193  46.9360 313.1815 15.08839971 29545,6917.88,95.438,541.263,538.2280000000002,0.0
52862.0,STARLINK-4010,PAYLOAD,2022-12-27 14:18:41,15.08843035,0.0002141,53.2173,227.8872,45.9775,314.1393,9.0764e-05,1.157e-05,0.0,0 STARLINK-4010,1 52862U 22062AJ  22361.59631267  .00001157  00000-0  90764-4 0  9992,2 52862  53.2173 227.8872 0002141  45.9775 314.1393 15.08843035 30078,6917.871,95.437,541.217,538.255,0.0
52862.0,STARLINK-4010,PAYLOAD,2022-12-27 23:50:59,15.08850523,0.0002163,53.217,226.1027,44.5612,315.5553,0.00015235,2.138e-05,0.0,0 STARLINK-4010,1 52862U 22062AJ  22361.99374516  .00002138  00000-0  15235-3 0  9996,2 52862  53.2170 226.1027 0002163  44.5612 315.5553 15.08850523 30138,6917.848000000001,95.437,541.21,538.217,0.0
52862.0,STARLINK-4010,PAYLOAD,2022-12-29 01:17:11,15.08833082,0.0002128,53.2167,221.3454,44.4319,315.6843,2.389e-05,9.2e-07,0.0,0 STARLINK-4010,1 52862U 22062AJ  22363.05360147  .00000092  00000-0  23890-4 0  9994,2 52862  53.2167 221.3454 0002128  44.4319 315.6843 15.08833082 30290,6917.901999999999,95.438,541.239,538.294,0.0
52862.0,STARLINK-4010,PAYLOAD,2022-12-29 07:38:44,15.08828832,0.0002164,53.2169,220.1559,45.8487,314.2683,-2.7597e-05,-7.27e-06,0.0,0 STARLINK-4010,1 52862U 22062AJ  22363.31856775 -.00000727  00000-0 -27597-4 0  9995,2 52862  53.2169 220.1559 0002164  45.8487 314.2683 15.08828832 29849,6917.915,95.438,541.2769999999998,538.2819999999998,0.0
52862.0,STARLINK-4010,PAYLOAD,2022-12-30 07:29:31,15.08835417,0.0002094,53.2165,215.695,46.6803,313.4364,-0.00010151,-1.903e-05,0.0,0 STARLINK-4010,1 52862U 22062AJ  22364.31217170 -.00001903  00000-0 -10151-3 0  9990,2 52862  53.2165 215.6950 0002094  46.6803 313.4364 15.08835417 29992,6917.894,95.438,541.2080000000002,538.311,0.0
52862.0,STARLINK-4010,PAYLOAD,2022-12-30 20:12:36,15.08832947,0.0002124,53.2168,213.3168,45.4774,314.6391,9.3415e-05,1.199e-05,0.0,0 STARLINK-4010,1 52862U 22062AJ  22364.84209270  .00001199  00000-0  93415-4 0  9990,2 52862  53.2168 213.3168 0002124  45.4774 314.6391 15.08832947 30562,6917.901999999999,95.438,541.236,538.298,0.0
